{"fetched_at":"2026-03-30T13:17:50Z","count":15418,"tles":[{"name":"STARLINK-5282","line1":"1 54169U 22141N   26087.82995343  .00001284  00000+0  98731-4 0  9997","line2":"2 54169  53.2170 277.7465 0001227  89.1932 270.9201 15.08835398188757","category":"Starlink"}]}