{
  "norad_id": 54169,
  "name": "STARLINK-5282",
  "history": [
    {
      "epoch": "2026-03-28T19:55:07.976352",
      "apogee_km": 540.6066961961515,
      "perigee_km": 538.9082147494446,
      "latitude_deg": 48.04348460902629,
      "longitude_deg": 36.575529279885814,
      "semi_major_axis_km": 6917.894455472798,
      "eccentricity": 0.00012276,
      "inclination_deg": 53.217,
      "raan_deg": 277.7465,
      "arg_perigee_deg": 89.1932,
      "mean_anomaly_deg": 270.9201,
      "mean_motion_rev_day": 15.08835398
    }
  ]
}